     3.04           N: GNSS NAV DATA    G: GPS              RINEX VERSION / TYPE
BNC 2.13.0          BKG Frankfurt       20210314 041128 UTC PGM / RUN BY / DATE
Concatenated RINEX files (17)                               COMMENT
                                                            END OF HEADER
G10 2021 03 14 00 00 00-8.042016997933e-05-7.958078640513e-12 0.000000000000e+00
     2.700000000000e+01-4.537500000000e+01 4.785913638228e-09-5.102789484236e-01
    -2.503395080566e-06 6.541565759107e-03 3.091990947723e-06 5.153666133881e+03
     0.000000000000e+00 7.823109626770e-08-1.147512438133e+00 1.266598701477e-07
     9.681974650364e-01 3.231875000000e+02-2.574085428076e+00-8.509640174956e-09
    -4.050168705784e-10 1.000000000000e+00 2.149000000000e+03 0.000000000000e+00
     2.000000000000e+00 0.000000000000e+00 2.328306436539e-09 2.700000000000e+01
    -7.200000000000e+03 0.000000000000e+00                                      
G27 2021 03 14 00 00 00-9.346846491098e-05-7.162270776462e-12 0.000000000000e+00
     3.300000000000e+01-2.993750000000e+01 3.995880730186e-09-2.559619315836e+00
    -1.734122633934e-06 9.230119525455e-03 1.260265707970e-05 5.153682138443e+03
     0.000000000000e+00 2.793967723846e-08 3.043368342907e+00-1.881271600723e-07
     9.768191873657e-01 1.448750000000e+02 5.864236764543e-01-7.609245527048e-09
    -1.585780339831e-10 1.000000000000e+00 2.149000000000e+03 0.000000000000e+00
     2.000000000000e+00 0.000000000000e+00 1.862645149231e-09 3.300000000000e+01
    -7.200000000000e+03 0.000000000000e+00                                      
G14 2021 03 14 00 00 00 9.986991062760e-05 0.000000000000e+00 0.000000000000e+00
     7.400000000000e+01-5.306250000000e+01 5.004137013821e-09 9.678653987245e-01
    -2.723187208176e-06 4.609262105078e-04 4.427507519722e-06 5.153739257812e+03
     0.000000000000e+00-2.793967723846e-08 2.042185662259e+00 5.587935447693e-09
     9.577054004798e-01 2.926250000000e+02 2.279171914761e+00-8.404278643368e-09
    -2.592965150264e-10 1.000000000000e+00 2.149000000000e+03 0.000000000000e+00
     2.000000000000e+00 0.000000000000e+00-7.916241884232e-09 5.860000000000e+02
    -7.200000000000e+03 0.000000000000e+00                                      
G32 2021 03 14 00 00 00 2.111028879881e-05 6.821210263297e-13 0.000000000000e+00
     9.400000000000e+01-6.268750000000e+01 4.154458554950e-09-1.816092923903e+00
    -3.220513463020e-06 4.713964299299e-03 1.207552850246e-05 5.153655685425e+03
     0.000000000000e+00 3.539025783539e-08-1.049139219945e-01-1.899898052216e-07
     9.577395201181e-01 1.470937500000e+02-2.415903744682e+00-7.758537812208e-09
    -2.000083293430e-10 1.000000000000e+00 2.149000000000e+03 0.000000000000e+00
     2.000000000000e+00 0.000000000000e+00 4.656612873077e-10 9.400000000000e+01
    -7.260000000000e+03 0.000000000000e+00                                      
G23 2021 03 14 00 00 00 1.175724901259e-04-9.094947017729e-13 0.000000000000e+00
     1.900000000000e+02-4.531250000000e+01 4.920919261754e-09 1.185232437848e+00
    -2.462416887283e-06 1.071137026884e-03 2.756714820862e-06 5.153642410278e+03
     0.000000000000e+00 2.048909664154e-08-1.170607941319e+00 1.117587089539e-08
     9.631524823212e-01 3.255312500000e+02 2.511646696144e+00-8.518569118311e-09
    -3.739441477033e-10 1.000000000000e+00 2.149000000000e+03 0.000000000000e+00
     2.000000000000e+00 0.000000000000e+00-8.381903000000e-09 1.900000000000e+02
    -7.170000000000e+03 4.000000000000e+00                                      
G24 2021 03 14 00 00 00 1.114793121815e-06-5.684341886081e-13 0.000000000000e+00
     7.900000000000e+01 7.843750000000e+01 5.134499586803e-09 1.902437944794e+00
     3.995373845100e-06 1.094132650178e-02 8.508563041687e-06 5.153612173080e+03
     0.000000000000e+00-2.179294824600e-07 8.807702300154e-01-2.793967723846e-08
     9.353343606590e-01 2.004375000000e+02 7.348154491558e-01-8.458923776700e-09
     5.968105738417e-10 1.000000000000e+00 2.149000000000e+03 0.000000000000e+00
     2.000000000000e+00 0.000000000000e+00 2.793967723846e-09 7.900000000000e+01
    -7.200000000000e+03 0.000000000000e+00                                      
G32 2021 03 14 01 59 44 2.111680805683e-05 6.821210263297e-13 0.000000000000e+00
     6.000000000000e+00-5.796875000000e+01 4.354109937584e-09-7.684061226736e-01
    -3.086403012276e-06 4.713563248515e-03 1.225620508194e-05 5.153654033661e+03
     7.184000000000e+03 8.009374141693e-08-1.049695479916e-01 1.061707735062e-07
     9.577366015966e-01 1.423437500000e+02-2.415734629890e+00-8.009262189347e-09
    -3.317995350682e-10 1.000000000000e+00 2.149000000000e+03 0.000000000000e+00
     2.000000000000e+00 0.000000000000e+00 4.656612873077e-10 6.000000000000e+00
     0.000000000000e+00 0.000000000000e+00                                      
G21 2021 03 14 01 59 44 1.029269769788e-04 3.069544618484e-12 0.000000000000e+00
     2.000000000000e+00 9.665625000000e+01 4.801271420798e-09-1.313924156318e+00
     5.209818482399e-06 2.425745525397e-02 9.102746844292e-06 5.153710315704e+03
     7.184000000000e+03-5.606561899185e-07-2.265120137494e+00 1.545995473862e-07
     9.563429497625e-01 2.126250000000e+02-1.172988702979e+00-8.457137988029e-09
     5.296649198128e-10 1.000000000000e+00 2.149000000000e+03 0.000000000000e+00
     2.000000000000e+00 0.000000000000e+00-1.024455000000e-08 2.000000000000e+00
     7.800000000000e+02 4.000000000000e+00                                      
G08 2021 03 14 01 59 44-1.363735646009e-05-1.477928890381e-12 0.000000000000e+00
     3.000000000000e+01-3.481250000000e+01 4.204103689222e-09-1.472227052715e+00
    -2.082437276840e-06 6.290300865658e-03 1.207925379276e-05 5.153570123672e+03
     7.184000000000e+03-2.048909664154e-08 3.026690577949e+00-1.117587089539e-07
     9.682582668376e-01 1.498750000000e+02-2.404970028084e-03-7.810682489134e-09
    -1.364342544629e-10 1.000000000000e+00 2.149000000000e+03 0.000000000000e+00
     2.000000000000e+00 0.000000000000e+00 5.122274160385e-09 3.000000000000e+01
     6.000000000000e+01 0.000000000000e+00                                      
G22 2021 03 14 01 59 44-6.609689444304e-04 8.071765478235e-12 0.000000000000e+00
     2.000000000000e+01-2.453125000000e+01 5.526301638525e-09-2.506190828016e+00
    -1.238659024239e-06 7.038359995931e-03 2.013519406319e-06 5.153581251144e+03
     7.184000000000e+03 1.676380634308e-08-1.241529966958e+00 1.359730958939e-07
     9.337067662803e-01 3.242812500000e+02-1.021409100120e+00-8.687861985379e-09
    -2.171519075667e-10 1.000000000000e+00 2.149000000000e+03 0.000000000000e+00
     2.000000000000e+00 0.000000000000e+00-1.816079020500e-08 2.000000000000e+01
    -9.000000000000e+01 0.000000000000e+00                                      
G17 2021 03 14 02 00 00 4.092836752534e-04 6.366462912410e-12 0.000000000000e+00
     1.150000000000e+02-8.531250000000e+00 3.836231223000e-09-1.553357993653e+00
    -1.806765794754e-07 1.342508802190e-02 1.224316656590e-05 5.153570648193e+03
     7.200000000000e+03-1.117587089539e-08 3.103508276091e+00 3.762543201447e-07
     9.829710373064e-01 1.570625000000e+02-1.573131246454e+00-7.589959009401e-09
    -1.575065607805e-10 1.000000000000e+00 2.149000000000e+03 0.000000000000e+00
     2.000000000000e+00 0.000000000000e+00-1.117587089539e-08 1.150000000000e+02
     0.000000000000e+00 0.000000000000e+00                                      
G11 2021 03 14 02 00 00 4.339963197708e-07 1.068656274583e-11 0.000000000000e+00
     1.020000000000e+02 5.150000000000e+01 5.420582931894e-09 1.882965203162e+00
     2.684071660042e-06 1.531244337093e-02 1.096352934837e-05 5.154077920914e+03
     7.200000000000e+03 2.551823854446e-07-2.676788421496e+00 1.303851604462e-08
     9.145016991579e-01 1.396250000000e+02 2.086281524171e+00-8.200698734876e-09
     1.453631978178e-10 1.000000000000e+00 2.149000000000e+03 0.000000000000e+00
     2.000000000000e+00 6.300000000000e+01-1.257285000000e-08 1.020000000000e+02
     0.000000000000e+00 4.000000000000e+00                                      
G28 2021 03 14 02 00 00 6.025065667927e-04-5.798028723802e-12 0.000000000000e+00
     8.100000000000e+01-4.737500000000e+01 4.662337062196e-09-7.698953454829e-01
    -2.503395080566e-06 1.780186640099e-02 5.286186933517e-06 5.153662895203e+03
     7.200000000000e+03-2.626329660416e-07 2.090470382357e+00-7.450580596924e-09
     9.734121126017e-01 2.905000000000e+02-1.348180445858e+00-8.549998998920e-09
    -1.435774091468e-10 1.000000000000e+00 2.149000000000e+03 0.000000000000e+00
     2.000000000000e+00 0.000000000000e+00-1.117587089539e-08 8.100000000000e+01
     0.000000000000e+00 0.000000000000e+00                                      
G14 2021 03 14 02 00 00 9.986991062760e-05 0.000000000000e+00 0.000000000000e+00
     7.500000000000e+01-4.634375000000e+01 4.972350087229e-09 2.015639476183e+00
    -2.475455403328e-06 4.611873300746e-04 4.202127456665e-06 5.153741357803e+03
     7.200000000000e+03 7.450580596924e-09 2.042124804866e+00-4.284083843231e-08
     9.577034679650e-01 2.975312500000e+02 2.281541290530e+00-8.447852195559e-09
    -2.278666283440e-10 1.000000000000e+00 2.149000000000e+03 0.000000000000e+00
     2.000000000000e+00 0.000000000000e+00-7.916241884232e-09 5.870000000000e+02
    -6.000000000000e+01 0.000000000000e+00                                      
